{
  "type": "FeatureCollection",
  "features": [
    {
      "type": "Feature",
      "properties": {
        "norad_id": 52912,
        "name": "GAOFEN-12 03",
        "group": "resource",
        "lat": 78.46469044415385,
        "lon": -153.58031380597112,
        "alt_km": 622.1793420775793,
        "timestamp": "2025-12-27T22:26:48.270842+00:00",
        "meta_object_name": "GAOFEN-12 03",
        "meta_object_id": "2022-069A",
        "meta_epoch": "2025-12-27T12:20:30.450048",
        "meta_mean_motion": 14.79644002,
        "meta_eccentricity": 0.0001677,
        "meta_inclination": 97.8474,
        "meta_ra_of_asc_node": 248.5217,
        "meta_arg_of_pericenter": 46.4457,
        "meta_mean_anomaly": 313.6894,
        "meta_ephemeris_type": 0,
        "meta_classification_type": "U",
        "meta_norad_cat_id": 52912,
        "meta_element_set_no": 999,
        "meta_rev_at_epoch": 18922,
        "meta_bstar": 0.00017896,
        "meta_mean_motion_dot": 1.291e-05,
        "meta_mean_motion_ddot": 0,
        "tle_line1": "1 52912U 22069A   25361.51424132  .00001291  00000+0  17896-3 0  9993",
        "tle_line2": "2 52912  97.8474 248.5217 0001677  46.4457 313.6894 14.79644002189223"
      },
      "geometry": {
        "type": "Point",
        "coordinates": [
          -153.58031380597112,
          78.46469044415385
        ]
      }
    },
    {
      "type": "Feature",
      "properties": {
        "norad_id": 54754,
        "name": "SWOT",
        "group": "resource",
        "lat": 41.58541935202471,
        "lon": -82.27379250097646,
        "alt_km": 889.4039678805757,
        "timestamp": "2025-12-27T22:26:48.270852+00:00",
        "meta_object_name": "SWOT",
        "meta_object_id": "2022-173A",
        "meta_epoch": "2025-12-27T11:57:12.848832",
        "meta_mean_motion": 14.00169206,
        "meta_eccentricity": 4.3e-05,
        "meta_inclination": 77.6106,
        "meta_ra_of_asc_node": 267.0683,
        "meta_arg_of_pericenter": 79.3734,
        "meta_mean_anomaly": 280.7466,
        "meta_ephemeris_type": 0,
        "meta_classification_type": "U",
        "meta_norad_cat_id": 54754,
        "meta_element_set_no": 999,
        "meta_rev_at_epoch": 15512,
        "meta_bstar": 9.0778e-05,
        "meta_mean_motion_dot": 1.31e-06,
        "meta_mean_motion_ddot": 0,
        "tle_line1": "1 54754U 22173A   25361.49806538  .00000131  00000+0  90778-4 0  9999",
        "tle_line2": "2 54754  77.6106 267.0683 0000430  79.3734 280.7466 14.00169206155122"
      },
      "geometry": {
        "type": "Point",
        "coordinates": [
          -82.27379250097646,
          41.58541935202471
        ]
      }
    },
    {
      "type": "Feature",
      "properties": {
        "norad_id": 57654,
        "name": "GAOFEN-12 04",
        "group": "resource",
        "lat": -74.3274335054605,
        "lon": 67.74553658513894,
        "alt_km": 638.279706909675,
        "timestamp": "2025-12-27T22:26:48.270861+00:00",
        "meta_object_name": "GAOFEN-12 04",
        "meta_object_id": "2023-123A",
        "meta_epoch": "2025-12-27T13:10:37.368768",
        "meta_mean_motion": 14.79743643,
        "meta_eccentricity": 0.0001188,
        "meta_inclination": 97.9129,
        "meta_ra_of_asc_node": 277.0824,
        "meta_arg_of_pericenter": 81.2849,
        "meta_mean_anomaly": 278.8497,
        "meta_ephemeris_type": 0,
        "meta_classification_type": "U",
        "meta_norad_cat_id": 57654,
        "meta_element_set_no": 999,
        "meta_rev_at_epoch": 12724,
        "meta_bstar": 0.00022149,
        "meta_mean_motion_dot": 1.614e-05,
        "meta_mean_motion_ddot": 0,
        "tle_line1": "1 57654U 23123A   25361.54904362  .00001614  00000+0  22149-3 0  9990",
        "tle_line2": "2 57654  97.9129 277.0824 0001188  81.2849 278.8497 14.79743643127245"
      },
      "geometry": {
        "type": "Point",
        "coordinates": [
          67.74553658513894,
          -74.3274335054605
        ]
      }
    },
    {
      "type": "Feature",
      "properties": {
        "norad_id": 59065,
        "name": "PARS 1",
        "group": "resource",
        "lat": 47.01390560411321,
        "lon": -34.89237588858194,
        "alt_km": 431.02687221358883,
        "timestamp": "2025-12-27T22:26:48.270871+00:00",
        "meta_object_name": "PARS 1",
        "meta_object_id": "2024-039Q",
        "meta_epoch": "2025-12-27T12:53:34.636416",
        "meta_mean_motion": 15.41320165,
        "meta_eccentricity": 0.0011217,
        "meta_inclination": 97.4654,
        "meta_ra_of_asc_node": 332.7885,
        "meta_arg_of_pericenter": 26.5923,
        "meta_mean_anomaly": 333.5897,
        "meta_ephemeris_type": 0,
        "meta_classification_type": "U",
        "meta_norad_cat_id": 59065,
        "meta_element_set_no": 999,
        "meta_rev_at_epoch": 10216,
        "meta_bstar": 0.00033823,
        "meta_mean_motion_dot": 0.00014046,
        "meta_mean_motion_ddot": 0,
        "tle_line1": "1 59065U 24039Q   25361.53720644  .00014046  00000+0  33823-3 0  9997",
        "tle_line2": "2 59065  97.4654 332.7885 0011217  26.5923 333.5897 15.41320165102163"
      },
      "geometry": {
        "type": "Point",
        "coordinates": [
          -34.89237588858194,
          47.01390560411321
        ]
      }
    },
    {
      "type": "Feature",
      "properties": {
        "norad_id": 59371,
        "name": "RESURS-P 4",
        "group": "resource",
        "lat": 57.18691342617702,
        "lon": -63.440582677864214,
        "alt_km": 463.29773574384126,
        "timestamp": "2025-12-27T22:26:48.270881+00:00",
        "meta_object_name": "RESURS-P 4",
        "meta_object_id": "2024-061A",
        "meta_epoch": "2025-12-27T12:47:26.407392",
        "meta_mean_motion": 15.3221713,
        "meta_eccentricity": 8.1e-05,
        "meta_inclination": 97.2561,
        "meta_ra_of_asc_node": 307.5623,
        "meta_arg_of_pericenter": 96.0925,
        "meta_mean_anomaly": 264.0409,
        "meta_ephemeris_type": 0,
        "meta_classification_type": "U",
        "meta_norad_cat_id": 59371,
        "meta_element_set_no": 999,
        "meta_rev_at_epoch": 9747,
        "meta_bstar": 0.00015205,
        "meta_mean_motion_dot": 4.653e-05,
        "meta_mean_motion_ddot": 0,
        "tle_line1": "1 59371U 24061A   25361.53294453  .00004653  00000+0  15205-3 0  9993",
        "tle_line2": "2 59371  97.2561 307.5623 0000810  96.0925 264.0409 15.32217130 97470"
      },
      "geometry": {
        "type": "Point",
        "coordinates": [
          -63.440582677864214,
          57.18691342617702
        ]
      }
    },
    {
      "type": "Feature",
      "properties": {
        "norad_id": 59625,
        "name": "LEGION 1",
        "group": "resource",
        "lat": 28.160988496659783,
        "lon": -99.50149360013478,
        "alt_km": 515.1067981645892,
        "timestamp": "2025-12-27T22:26:48.270891+00:00",
        "meta_object_name": "LEGION 1",
        "meta_object_id": "2024-081A",
        "meta_epoch": "2025-12-27T12:16:47.658144",
        "meta_mean_motion": 15.16625986,
        "meta_eccentricity": 0.0003697,
        "meta_inclination": 97.5192,
        "meta_ra_of_asc_node": 76.0239,
        "meta_arg_of_pericenter": 248.1926,
        "meta_mean_anomaly": 111.8913,
        "meta_ephemeris_type": 0,
        "meta_classification_type": "U",
        "meta_norad_cat_id": 59625,
        "meta_element_set_no": 999,
        "meta_rev_at_epoch": 9151,
        "meta_bstar": 0.00028449,
        "meta_mean_motion_dot": 5.496e-05,
        "meta_mean_motion_ddot": 0,
        "tle_line1": "1 59625U 24081A   25361.51166271  .00005496  00000+0  28449-3 0  9991",
        "tle_line2": "2 59625  97.5192  76.0239 0003697 248.1926 111.8913 15.16625986 91515"
      },
      "geometry": {
        "type": "Point",
        "coordinates": [
          -99.50149360013478,
          28.160988496659783
        ]
      }
    },
    {
      "type": "Feature",
      "properties": {
        "norad_id": 59626,
        "name": "LEGION 2",
        "group": "resource",
        "lat": -27.795021255233205,
        "lon": 80.52467253726724,
        "alt_km": 522.8030090361872,
        "timestamp": "2025-12-27T22:26:48.270901+00:00",
        "meta_object_name": "LEGION 2",
        "meta_object_id": "2024-081B",
        "meta_epoch": "2025-12-27T11:29:10.041216",
        "meta_mean_motion": 15.16641196,
        "meta_eccentricity": 0.0005852,
        "meta_inclination": 97.5197,
        "meta_ra_of_asc_node": 76.0791,
        "meta_arg_of_pericenter": 230.1297,
        "meta_mean_anomaly": 129.9422,
        "meta_ephemeris_type": 0,
        "meta_classification_type": "U",
        "meta_norad_cat_id": 59626,
        "meta_element_set_no": 999,
        "meta_rev_at_epoch": 9151,
        "meta_bstar": 0.00030136,
        "meta_mean_motion_dot": 5.83e-05,
        "meta_mean_motion_ddot": 0,
        "tle_line1": "1 59626U 24081B   25361.47858844  .00005830  00000+0  30136-3 0  9999",
        "tle_line2": "2 59626  97.5197  76.0791 0005852 230.1297 129.9422 15.16641196 91517"
      },
      "geometry": {
        "type": "Point",
        "coordinates": [
          80.52467253726724,
          -27.795021255233205
        ]
      }
    }
  ]
}